start=new Date('2022-11-17T00:00:00.000Z').valueOf();
sats=[{"APOAPSIS":"564.974","REV_AT_EPOCH":"1951","ARG_OF_PERICENTER":"22.4431","ELEMENT_SET_NO":"999","EPHEMERIS_TYPE":"0","SEMIMAJOR_AXIS":"6941.153","RA_OF_ASC_NODE":"139.6968","SITE":"AFWTR","CENTER_NAME":"EARTH","MEAN_MOTION_DOT":"0.00001136","EPOCH":"2022-11-16T13:31:03.431424","MEAN_MOTION":"15.01257946","REF_FRAME":"TEME","MEAN_MOTION_DDOT":"0.0000000000000","TLE_LINE1":"1 53046U 22077D   22320.56323416  .00001136  00000-0  93038-4 0  9993","PERIAPSIS":"561.062","COUNTRY_CODE":"US","OBJECT_ID":"2022-077D","NORAD_CAT_ID":"53046","MEAN_ELEMENT_THEORY":"SGP4","RCS_SIZE":"LARGE","ECCENTRICITY":"0.00028180","GP_ID":"217974832","INCLINATION":"97.6528","TLE_LINE2":"2 53046  97.6528 139.6968 0002818  22.4431 337.6916 15.01257946 19515","LAUNCH_DATE":"2022-07-11","MEAN_ANOMALY":"337.6916","OBJECT_NAME":"STARLINK-4331","FILE":"3659788","BSTAR":"0.00009303800000","DECAY_DATE":null,"PERIOD":"95.920","OBJECT_TYPE":"PAYLOAD","TIME_SYSTEM":"UTC","CLASSIFICATION_TYPE":"U"},{"GP_ID":"218017877","TLE_LINE2":"2 53047  97.6511 139.8812 0002727  23.6835 336.4514 15.01261658 19547","LAUNCH_DATE":"2022-07-11","INCLINATION":"97.6511","ECCENTRICITY":"0.00027270","FILE":"3660705","BSTAR":"0.00007590600000","MEAN_ANOMALY":"336.4514","OBJECT_NAME":"STARLINK-4352","PERIOD":"95.919","OBJECT_TYPE":"PAYLOAD","DECAY_DATE":null,"TIME_SYSTEM":"UTC","CLASSIFICATION_TYPE":"U","ARG_OF_PERICENTER":"23.6835","ELEMENT_SET_NO":"999","EPHEMERIS_TYPE":"0","SEMIMAJOR_AXIS":"6941.142","APOAPSIS":"564.900","REV_AT_EPOCH":"1954","EPOCH":"2022-11-16T18:16:19.396704","RA_OF_ASC_NODE":"139.8812","SITE":"AFWTR","CENTER_NAME":"EARTH","MEAN_MOTION_DOT":"0.00000916","PERIAPSIS":"561.114","MEAN_MOTION":"15.01261658","REF_FRAME":"TEME","MEAN_MOTION_DDOT":"0.0000000000000","TLE_LINE1":"1 53047U 22077E   22320.76133561  .00000916  00000-0  75906-4 0  9995","MEAN_ELEMENT_THEORY":"SGP4","RCS_SIZE":"LARGE","OBJECT_ID":"2022-077E","COUNTRY_CODE":"US","NORAD_CAT_ID":"53047"},{"ECCENTRICITY":"0.00025730","GP_ID":"217976070","TLE_LINE2":"2 53048  97.6535 139.6925 0002573  25.7243 334.4109 15.01255403 20082","INCLINATION":"97.6535","LAUNCH_DATE":"2022-07-11","OBJECT_NAME":"STARLINK-4355","MEAN_ANOMALY":"334.4109","FILE":"3660002","BSTAR":"0.00005550500000","DECAY_DATE":null,"OBJECT_TYPE":"PAYLOAD","PERIOD":"95.920","CLASSIFICATION_TYPE":"U","TIME_SYSTEM":"UTC","REV_AT_EPOCH":"2008","APOAPSIS":"564.812","EPHEMERIS_TYPE":"0","ARG_OF_PERICENTER":"25.7243","ELEMENT_SET_NO":"999","SEMIMAJOR_AXIS":"6941.161","RA_OF_ASC_NODE":"139.6925","MEAN_MOTION_DOT":"0.00000654","CENTER_NAME":"EARTH","SITE":"AFWTR","EPOCH":"2022-11-16T13:28:44.568480","MEAN_MOTION":"15.01255403","MEAN_MOTION_DDOT":"0.0000000000000","TLE_LINE1":"1 53048U 22077F   22320.56162695  .00000654  00000-0  55505-4 0  9996","REF_FRAME":"TEME","PERIAPSIS":"561.240","NORAD_CAT_ID":"53048","COUNTRY_CODE":"US","OBJECT_ID":"2022-077F","MEAN_ELEMENT_THEORY":"SGP4","RCS_SIZE":"LARGE"},{"CLASSIFICATION_TYPE":"U","TIME_SYSTEM":"UTC","OBJECT_TYPE":"PAYLOAD","PERIOD":"95.919","DECAY_DATE":null,"BSTAR":"0.00003302300000","FILE":"3660705","OBJECT_NAME":"STARLINK-4345","MEAN_ANOMALY":"335.8642","LAUNCH_DATE":"2022-07-11","TLE_LINE2":"2 53049  97.6514 139.9360 0001833  24.2668 335.8642 15.01269892 19542","INCLINATION":"97.6514","GP_ID":"218018548","ECCENTRICITY":"0.00018330","RCS_SIZE":"LARGE","MEAN_ELEMENT_THEORY":"SGP4","COUNTRY_CODE":"US","OBJECT_ID":"2022-077G","NORAD_CAT_ID":"53049","PERIAPSIS":"561.709","TLE_LINE1":"1 53049U 22077G   22320.82267009  .00000365  00000-0  33023-4 0  9991","MEAN_MOTION_DDOT":"0.0000000000000","REF_FRAME":"TEME","MEAN_MOTION":"15.01269892","EPOCH":"2022-11-16T19:44:38.695776","MEAN_MOTION_DOT":"0.00000365","CENTER_NAME":"EARTH","SITE":"AFWTR","RA_OF_ASC_NODE":"139.9360","SEMIMAJOR_AXIS":"6941.116","EPHEMERIS_TYPE":"0","ELEMENT_SET_NO":"999","ARG_OF_PERICENTER":"24.2668","REV_AT_EPOCH":"1954","APOAPSIS":"564.254"},{"ECCENTRICITY":"0.00023760","LAUNCH_DATE":"2022-07-11","TLE_LINE2":"2 53050  97.6515 139.8783 0002376  32.1272 328.0097 15.01266678 19531","INCLINATION":"97.6515","GP_ID":"218018056","OBJECT_NAME":"STARLINK-4343","MEAN_ANOMALY":"328.0097","BSTAR":"0.00009394100000","FILE":"3660705","DECAY_DATE":null,"OBJECT_TYPE":"PAYLOAD","PERIOD":"95.919","CLASSIFICATION_TYPE":"U","TIME_SYSTEM":"UTC","REV_AT_EPOCH":"1953","APOAPSIS":"564.640","SEMIMAJOR_AXIS":"6941.126","EPHEMERIS_TYPE":"0","ARG_OF_PERICENTER":"32.1272","ELEMENT_SET_NO":"999","MEAN_MOTION_DOT":"0.00001148","SITE":"AFWTR","CENTER_NAME":"EARTH","RA_OF_ASC_NODE":"139.8783","EPOCH":"2022-11-16T18:13:39.309600","TLE_LINE1":"1 53050U 22077H   22320.75948275  .00001148  00000-0  93941-4 0  9991","MEAN_MOTION_DDOT":"0.0000000000000","REF_FRAME":"TEME","MEAN_MOTION":"15.01266678","PERIAPSIS":"561.342","COUNTRY_CODE":"US","OBJECT_ID":"2022-077H","NORAD_CAT_ID":"53050","RCS_SIZE":"LARGE","MEAN_ELEMENT_THEORY":"SGP4"},{"MEAN_MOTION_DOT":"0.00000927","CENTER_NAME":"EARTH","SITE":"AFWTR","RA_OF_ASC_NODE":"139.8701","EPOCH":"2022-11-16T18:05:39.513120","REV_AT_EPOCH":"1953","APOAPSIS":"563.947","SEMIMAJOR_AXIS":"6941.126","EPHEMERIS_TYPE":"0","ELEMENT_SET_NO":"999","ARG_OF_PERICENTER":"23.7674","NORAD_CAT_ID":"53051","COUNTRY_CODE":"US","OBJECT_ID":"2022-077J","RCS_SIZE":"LARGE","MEAN_ELEMENT_THEORY":"SGP4","MEAN_MOTION_DDOT":"0.0000000000000","TLE_LINE1":"1 53051U 22077J   22320.75392955  .00000927  00000-0  76748-4 0  9990","REF_FRAME":"TEME","MEAN_MOTION":"15.01266679","PERIAPSIS":"562.035","OBJECT_NAME":"STARLINK-4336","MEAN_ANOMALY":"336.3614","BSTAR":"0.00007674800000","FILE":"3660705","ECCENTRICITY":"0.00013770","TLE_LINE2":"2 53051  97.6519 139.8701 0001377  23.7674 336.3614 15.01266679 19536","INCLINATION":"97.6519","LAUNCH_DATE":"2022-07-11","GP_ID":"218018221","CLASSIFICATION_TYPE":"U","TIME_SYSTEM":"UTC","DECAY_DATE":null,"OBJECT_TYPE":"PAYLOAD","PERIOD":"95.919"},{"OBJECT_NAME":"STARLINK-4341","MEAN_ANOMALY":"334.8010","FILE":"3660705","BSTAR":"0.00001565000000","ECCENTRICITY":"0.00022280","GP_ID":"218018714","TLE_LINE2":"2 53052  97.6514 139.8763 0002228  25.3323 334.8010 15.01255509 19538","INCLINATION":"97.6514","LAUNCH_DATE":"2022-07-11","CLASSIFICATION_TYPE":"U","TIME_SYSTEM":"UTC","DECAY_DATE":null,"OBJECT_TYPE":"PAYLOAD","PERIOD":"95.920","RA_OF_ASC_NODE":"139.8763","MEAN_MOTION_DOT":"0.00000142","CENTER_NAME":"EARTH","SITE":"AFWTR","EPOCH":"2022-11-16T18:10:59.911968","REV_AT_EPOCH":"1953","APOAPSIS":"564.572","EPHEMERIS_TYPE":"0","ARG_OF_PERICENTER":"25.3323","ELEMENT_SET_NO":"999","SEMIMAJOR_AXIS":"6941.161","COUNTRY_CODE":"US","NORAD_CAT_ID":"53052","OBJECT_ID":"2022-077K","MEAN_ELEMENT_THEORY":"SGP4","RCS_SIZE":"LARGE","MEAN_MOTION":"15.01255509","TLE_LINE1":"1 53052U 22077K   22320.75763787  .00000142  00000-0  15650-4 0  9990","MEAN_MOTION_DDOT":"0.0000000000000","REF_FRAME":"TEME","PERIAPSIS":"561.479"},{"EPOCH":"2022-11-16T19:36:18.276480","RA_OF_ASC_NODE":"139.9301","MEAN_MOTION_DOT":"0.00000363","SITE":"AFWTR","CENTER_NAME":"EARTH","EPHEMERIS_TYPE":"0","ELEMENT_SET_NO":"999","ARG_OF_PERICENTER":"15.4607","SEMIMAJOR_AXIS":"6941.140","REV_AT_EPOCH":"1954","APOAPSIS":"563.567","MEAN_ELEMENT_THEORY":"SGP4","RCS_SIZE":"LARGE","OBJECT_ID":"2022-077L","COUNTRY_CODE":"US","NORAD_CAT_ID":"53053","PERIAPSIS":"562.444","MEAN_MOTION":"15.01262206","MEAN_MOTION_DDOT":"0.0000000000000","TLE_LINE1":"1 53053U 22077L   22320.81687820  .00000363  00000-0  32859-4 0  9996","REF_FRAME":"TEME","FILE":"3660705","BSTAR":"0.00003285900000","OBJECT_NAME":"STARLINK-4337","MEAN_ANOMALY":"344.6641","GP_ID":"218018876","INCLINATION":"97.6514","TLE_LINE2":"2 53053  97.6514 139.9301 0000809  15.4607 344.6641 15.01262206 19548","LAUNCH_DATE":"2022-07-11","ECCENTRICITY":"0.00008090","CLASSIFICATION_TYPE":"U","TIME_SYSTEM":"UTC","OBJECT_TYPE":"PAYLOAD","PERIOD":"95.919","DECAY_DATE":null},{"ECCENTRICITY":"0.00015930","TLE_LINE2":"2 53054  97.6516 139.9368 0001593  22.6582 337.4712 15.01258967 19545","LAUNCH_DATE":"2022-07-11","INCLINATION":"97.6516","GP_ID":"218017713","MEAN_ANOMALY":"337.4712","OBJECT_NAME":"STARLINK-4339","BSTAR":"-0.00007078400000","FILE":"3660705","DECAY_DATE":null,"PERIOD":"95.919","OBJECT_TYPE":"PAYLOAD","TIME_SYSTEM":"UTC","CLASSIFICATION_TYPE":"U","APOAPSIS":"564.121","REV_AT_EPOCH":"1954","SEMIMAJOR_AXIS":"6941.150","ELEMENT_SET_NO":"999","ARG_OF_PERICENTER":"22.6582","EPHEMERIS_TYPE":"0","SITE":"AFWTR","CENTER_NAME":"EARTH","MEAN_MOTION_DOT":"-0.00000968","RA_OF_ASC_NODE":"139.9368","EPOCH":"2022-11-16T19:44:18.641472","REF_FRAME":"TEME","MEAN_MOTION_DDOT":"0.0000000000000","TLE_LINE1":"1 53054U 22077M   22320.82243798 -.00000968  00000-0 -70784-4 0  9992","MEAN_MOTION":"15.01258967","PERIAPSIS":"561.909","COUNTRY_CODE":"US","NORAD_CAT_ID":"53054","OBJECT_ID":"2022-077M","RCS_SIZE":"LARGE","MEAN_ELEMENT_THEORY":"SGP4"},{"PERIAPSIS":"562.768","MEAN_MOTION":"15.01273876","TLE_LINE1":"1 53055U 22077N   22320.81502085  .00004293  00000-0  33851-3 0  9995","MEAN_MOTION_DDOT":"0.0000000000000","REF_FRAME":"TEME","MEAN_ELEMENT_THEORY":"SGP4","RCS_SIZE":"LARGE","NORAD_CAT_ID":"53055","COUNTRY_CODE":"US","OBJECT_ID":"2022-077N","EPHEMERIS_TYPE":"0","ELEMENT_SET_NO":"999","ARG_OF_PERICENTER":"3.2237","SEMIMAJOR_AXIS":"6941.104","REV_AT_EPOCH":"1954","APOAPSIS":"563.170","EPOCH":"2022-11-16T19:33:37.801440","RA_OF_ASC_NODE":"139.9243","MEAN_MOTION_DOT":"0.00004293","CENTER_NAME":"EARTH","SITE":"AFWTR","OBJECT_TYPE":"PAYLOAD","PERIOD":"95.919","DECAY_DATE":null,"CLASSIFICATION_TYPE":"U","TIME_SYSTEM":"UTC","GP_ID":"218017878","TLE_LINE2":"2 53055  97.6513 139.9243 0000290   3.2237 356.8989 15.01273876 19547","INCLINATION":"97.6513","LAUNCH_DATE":"2022-07-11","ECCENTRICITY":"0.00002900","FILE":"3660705","BSTAR":"0.00033851000000","OBJECT_NAME":"STARLINK-4338","MEAN_ANOMALY":"356.8989"}];
